SAUDISAT 1C (SO-50)     
1 27607U 02058C   26200.92670931  .00000394  00000+0  64508-4 0  9996
2 27607  64.5521  27.6843 0074380 256.4147 102.8667 14.83103564269314
SAUDISAT 2              
1 28371U 04025F   26201.27441469  .00000110  00000+0  35677-4 0  9993
2 28371  98.5523 202.1138 0024383 192.3046 167.7559 14.56699867170567
SAUDISAT 3              
1 31118U 07012B   26201.57957519  .00000126  00000+0  28601-4 0  9992
2 31118  98.1470 152.0055 0015837 118.7559 241.5240 14.71442023 32655
SALSAT                  
1 46495U 20068K   26200.97640307  .00004107  00000+0  14329-3 0  9993
2 46495  97.8865 206.0496 0009725 176.0322 184.0997 15.30211220320374
