OBJECT_NAME,OBJECT_ID,EPOCH,MEAN_MOTION,ECCENTRICITY,INCLINATION,RA_OF_ASC_NODE,ARG_OF_PERICENTER,MEAN_ANOMALY,EPHEMERIS_TYPE,CLASSIFICATION_TYPE,NORAD_CAT_ID,ELEMENT_SET_NO,REV_AT_EPOCH,BSTAR,MEAN_MOTION_DOT,MEAN_MOTION_DDOT
SAUDISAT 1C (SO-50),2002-058C,2026-07-19T22:14:27.684384,14.83103564,.00743805,64.5521,27.6843,256.4147,102.8667,0,U,27607,999,26931,.6450776E-4,.394E-5,0
SAUDISAT 2,2004-025F,2026-07-20T06:35:09.429216,14.56699867,.00243837,98.5523,202.1138,192.3046,167.7559,0,U,28371,999,17056,.3567665E-4,.11E-5,0
SAUDISAT 3,2007-012B,2026-07-20T13:54:35.296416,14.71442023,.00158374,98.1470,152.0055,118.7559,241.5240,0,U,31118,999,3265,.28601296E-4,.126E-5,0
SALSAT,2020-068K,2026-07-19T23:26:01.225248,15.30211220,.00097251,97.8865,206.0496,176.0322,184.0997,0,U,46495,999,32037,.14328943E-3,.4107E-4,0
